NORAD_CAT_ID,OBJECT_NAME,OBJECT_TYPE,EPOCH,MEAN_MOTION,ECCENTRICITY,INCLINATION,RA_OF_ASC_NODE,ARG_OF_PERICENTER,MEAN_ANOMALY,BSTAR,MEAN_MOTION_DOT,MEAN_MOTION_DDOT,TLE_LINE0,TLE_LINE1,TLE_LINE2,SEMIMAJOR_AXIS,PERIOD,APOGEE,PERIGEE,DECAYED
51759.0,STARLINK-3456,PAYLOAD,2022-04-15 14:00:01,15.73316452,0.0002,53.2133,237.3221,24.1969,158.7641,-0.00032291,-0.00045923,0.0,0 STARLINK-3456,1 51759U 22016AX  22105.58334491 -.00045923  00000-0 -32291-3 0  9990,2 51759  53.2133 237.3221 0002000  24.1969 158.7641 15.73316452  9636,6727.563,91.526,350.774,348.083,0.0
51759.0,STARLINK-3456,PAYLOAD,2022-04-15 22:00:00,15.73278224,0.0002108,53.2127,235.6725,24.615,247.3665,-0.00062747,-0.0008807,0.0,0 STARLINK-3456,1 51759U 22016AX  22105.91667824 -.00088070  00000-0 -62747-3 0  9995,2 51759  53.2127 235.6725 0002108  24.6150 247.3665 15.73278224  9685,6727.672,91.529,350.955,348.119,0.0
51759.0,STARLINK-3456,PAYLOAD,2022-04-16 04:00:00,15.73237054,0.0001973,53.2131,234.4337,30.908,217.8122,-0.0010895,-0.00151066,0.0,0 STARLINK-3456,1 51759U 22016AX  22106.16667824 -.00151066  00000-0 -10895-2 0  9995,2 51759  53.2131 234.4337 0001973  30.9080 217.8122 15.73237054  9728,6727.79,91.531,350.982,348.327,0.0
51759.0,STARLINK-3456,PAYLOAD,2022-04-16 14:00:01,15.73049891,0.0002183,53.2134,232.3732,33.2932,56.5487,-4.477600000000001e-05,-6.859e-05,0.0,0 STARLINK-3456,1 51759U 22016AX  22106.58334491 -.00006859  00000-0 -44776-4 0  9998,2 51759  53.2134 232.3732 0002183  33.2932  56.5487 15.73049891  3707,6728.323,91.542,351.657,348.719,0.0
51759.0,STARLINK-3456,PAYLOAD,2022-04-16 22:00:01,15.73088892,0.0002185,53.2134,230.7242,25.7204,152.9089,0.00044246,0.00061641,0.0,0 STARLINK-3456,1 51759U 22016AX  22106.91668981  .00061641  00000-0  44246-3 0  9998,2 51759  53.2134 230.7242 0002185  25.7204 152.9089 15.73088892  9849,6728.212,91.54,351.547,348.607,0.0
51759.0,STARLINK-3456,PAYLOAD,2022-04-17 14:00:01,15.73188751,0.0002311,53.2136,227.4253,26.6571,329.6149,0.0002145,0.00029576,0.0,0 STARLINK-3456,1 51759U 22016AX  22107.58334491  .00029576  00000-0  21450-3 0  9991,2 51759  53.2136 227.4253 0002311  26.6571 329.6149 15.73188751  3708,6727.927,91.534,351.347,348.237,0.0
51759.0,STARLINK-3456,PAYLOAD,2022-04-17 22:00:00,15.7323449,0.0002388,53.213,225.7756,25.7939,59.402,0.00026086,0.00036204,0.0,0 STARLINK-3456,1 51759U 22016AX  22107.91667824  .00036204  00000-0  26086-3 0  9993,2 51759  53.2130 225.7756 0002388  25.7939  59.4020 15.73234490  3699,6727.797,91.531,351.26800000000014,348.055,0.0
51759.0,STARLINK-3456,PAYLOAD,2022-04-18 08:00:01,15.73256935,0.0002231,53.2133,223.7121,32.5593,253.8563,-0.0001079,-0.00015775,0.0,0 STARLINK-3456,1 51759U 22016AX  22108.33334491 -.00015775  00000-0 -10790-3 0  9998,2 51759  53.2133 223.7121 0002231  32.5593 253.8563 15.73256935 10064,6727.733,91.53,351.099,348.097,0.0
51759.0,STARLINK-3456,PAYLOAD,2022-04-18 14:00:01,15.73275121,0.0002429,53.2133,222.4767,29.0176,234.1502,-0.00040318,-0.00057014,0.0,0 STARLINK-3456,1 51759U 22016AX  22108.58334491 -.00057014  00000-0 -40318-3 0  9996,2 51759  53.2133 222.4767 0002429  29.0176 234.1502 15.73275121  3709,6727.681,91.529,351.18,347.912,0.0
51759.0,STARLINK-3456,PAYLOAD,2022-04-18 22:00:00,15.73261864,0.0002395,53.2133,220.8267,22.0423,330.1197,-0.00057942,-0.00081385,0.0,0 STARLINK-3456,1 51759U 22016AX  22108.91667824 -.00081385  00000-0 -57942-3 0  9991,2 51759  53.2133 220.8267 0002395  22.0423 330.1197 15.73261864  3702,6727.719,91.53,351.195,347.973,0.0
51759.0,STARLINK-3456,PAYLOAD,2022-04-19 14:00:01,15.73184254,0.0002611,53.2132,217.5278,25.5266,144.5479,0.0002442,0.00033769,0.0,0 STARLINK-3456,1 51759U 22016AX  22109.58334491  .00033769  00000-0  24420-3 0  9992,2 51759  53.2132 217.5278 0002611  25.5266 144.5479 15.73184254 10266,6727.94,91.534,351.56199999999984,348.048,0.0
51759.0,STARLINK-3456,PAYLOAD,2022-04-20 06:00:00,15.73216963,0.0002409,53.2126,214.2267,25.7799,322.1409,4.1041e-05,5.146e-05,0.0,0 STARLINK-3456,1 51759U 22016AX  22110.25001157  .00005146  00000-0  41041-4 0  9995,2 51759  53.2126 214.2267 0002409  25.7799 322.1409 15.73216963 10360,6727.847,91.532,351.333,348.091,0.0
51759.0,STARLINK-3456,PAYLOAD,2022-04-20 14:00:01,15.731860500000002,0.0002694,53.2126,212.5794,26.1578,50.7034,2.9691e-05,3.545e-05,0.0,0 STARLINK-3456,1 51759U 22016AX  22110.58334491  .00003545  00000-0  29691-4 0  9999,2 51759  53.2126 212.5794 0002694  26.1578  50.7034 15.73186050 10419,6727.935,91.534,351.612,347.987,0.0
51759.0,STARLINK-3456,PAYLOAD,2022-04-20 22:00:00,15.73192726,0.0002671,53.2126,210.929,22.9183,142.8659,-0.00014108,-0.00020371,0.0,0 STARLINK-3456,1 51759U 22016AX  22110.91667824 -.00020371  00000-0 -14108-3 0  9999,2 51759  53.2126 210.9290 0002671  22.9183 142.8659 15.73192726  3687,6727.916,91.534,351.57800000000015,347.9840000000001,0.0
51759.0,STARLINK-3456,PAYLOAD,2022-04-21 14:00:01,15.73179836,0.0002795,53.2126,207.6305,21.0652,322.5806,0.00022288,0.0003075,0.0,0 STARLINK-3456,1 51759U 22016AX  22111.58334491  .00030750  00000-0  22288-3 0  9992,2 51759  53.2126 207.6305 0002795  21.0652 322.5806 15.73179836  3706,6727.953,91.534,351.6980000000001,347.93699999999984,0.0
51759.0,STARLINK-3456,PAYLOAD,2022-04-21 22:00:00,15.73267308,0.0002742,53.2119,205.98,17.334,55.243,-0.00028503,-0.00040556,0.0,0 STARLINK-3456,1 51759U 22016AX  22111.91667824 -.00040556  00000-0 -28503-3 0  9991,2 51759  53.2119 205.9800 0002742  17.3340  55.2430 15.73267308  3685,6727.703,91.529,351.413,347.724,0.0
51759.0,STARLINK-3456,PAYLOAD,2022-04-22 14:00:01,15.73254806,0.0002805,53.2123,202.6817,13.4804,237.0525,-0.00071469,-0.00099999,0.0,0 STARLINK-3456,1 51759U 22016AX  22112.58334491 -.00099999  00000-0 -71469-3 0  9990,2 51759  53.2123 202.6817 0002805  13.4804 237.0525 15.73254806  3712,6727.739000000001,91.53,351.491,347.717,0.0
51759.0,STARLINK-3456,PAYLOAD,2022-04-22 16:00:00,15.73215697,0.0002836,53.2124,202.2695,12.5191,350.2666,-0.00034487,-0.00048786,0.0,0 STARLINK-3456,1 51759U 22016AX  22112.66667824 -.00048786  00000-0 -34487-3 0  9995,2 51759  53.2124 202.2695 0002836  12.5191 350.2666 15.73215697 10746,6727.85,91.532,351.62300000000016,347.807,0.0
51759.0,STARLINK-3456,PAYLOAD,2022-04-23 14:00:01,15.73190847,0.0003031,53.2126,197.7328,11.9116,145.3575,-2.5514e-05,-4.201e-05,0.0,0 STARLINK-3456,1 51759U 22016AX  22113.58334491 -.00004201  00000-0 -25514-4 0  9994,2 51759  53.2126 197.7328 0003031  11.9116 145.3575 15.73190847 10894,6727.920999999999,91.534,351.826,347.747,0.0
51759.0,STARLINK-3456,PAYLOAD,2022-04-24 06:00:00,15.73234856,0.0002816,53.2126,194.4317,13.469,321.6434,-0.00021933,-0.00031342,0.0,0 STARLINK-3456,1 51759U 22016AX  22114.25001157 -.00031342  00000-0 -21933-3 0  9995,2 51759  53.2126 194.4317 0002816  13.4690 321.6434 15.73234856 10993,6727.795999999999,91.531,351.555,347.766,0.0
51759.0,STARLINK-3456,PAYLOAD,2022-04-24 14:00:01,15.73286865,0.0003292,53.2144,192.778,15.7153,48.3334,-0.0012525,-0.00173541,0.0,0 STARLINK-3456,1 51759U 22016AX  22114.58334491 -.00173541  00000-0 -12525-2 0  9995,2 51759  53.2144 192.7780 0003292  15.7153  48.3334 15.73286865  3694,6727.648,91.528,351.727,347.298,0.0
51759.0,STARLINK-3456,PAYLOAD,2022-04-24 22:00:00,15.72951397,0.0003029,53.2162,191.1215,11.4766,141.5972,-0.00053481,-0.00074251,0.0,0 STARLINK-3456,1 51759U 22016AX  22114.91667824 -.00074251  00000-0 -53481-3 0  9996,2 51759  53.2162 191.1215 0003029  11.4766 141.5972 15.72951397 11108,6728.604,91.548,352.50699999999995,348.431,0.0
51759.0,STARLINK-3456,PAYLOAD,2022-04-25 06:00:00,15.72975769,0.0002948,53.2178,189.4684,11.9778,229.706,-0.0056278,-0.00719664,0.0,0 STARLINK-3456,1 51759U 22016AX  22115.25001157 -.00719664  00000-0 -56278-2 0  9995,2 51759  53.2178 189.4684 0002948  11.9778 229.7060 15.72975769 11153,6728.535,91.546,352.3830000000001,348.416,0.0
51759.0,STARLINK-3456,PAYLOAD,2022-04-25 14:00:01,15.724662099999998,0.0002893,53.2178,187.8247,10.5806,319.4465,-0.005769,-0.00721564,0.0,0 STARLINK-3456,1 51759U 22016AX  22115.58334491 -.00721564  00000-0 -57690-2 0  9992,2 51759  53.2178 187.8247 0002893  10.5806 319.4465 15.72466210  3711,6729.988,91.576,353.8,349.906,0.0
51759.0,STARLINK-3456,PAYLOAD,2022-04-25 22:00:00,15.71954113,0.0002819,53.2175,186.1785,9.9935,47.7668,-0.0058606,-0.00717474,0.0,0 STARLINK-3456,1 51759U 22016AX  22115.91667824 -.00717474  00000-0 -58606-2 0  9991,2 51759  53.2175 186.1785 0002819   9.9935  47.7668 15.71954113  3708,6731.45,91.606,355.212,351.417,0.0
51759.0,STARLINK-3456,PAYLOAD,2022-04-26 06:00:00,15.7144367,0.0003233,53.2176,184.5349,8.7178,136.1614,-0.005977,-0.00716234,0.0,0 STARLINK-3456,1 51759U 22016AX  22116.25001157 -.00716234  00000-0 -59770-2 0  9996,2 51759  53.2176 184.5349 0003233   8.7178 136.1614 15.71443670 11315,6732.906999999997,91.635,356.949,352.595,0.0
51759.0,STARLINK-3456,PAYLOAD,2022-04-26 14:00:01,15.70931216,0.0003191999999999,53.2175,182.8948,359.7723,231.6783,-0.0060747,-0.00712606,0.0,0 STARLINK-3456,1 51759U 22016AX  22116.58335648 -.00712606  00000-0 -60747-2 0  9992,2 51759  53.2175 182.8948 0003192 359.7723 231.6783 15.70931216  3708,6734.371,91.665,358.386,354.087,0.0
51759.0,STARLINK-3456,PAYLOAD,2022-04-26 22:00:00,15.70426946,0.0003222,53.2176,181.2523,6.079,311.1982,-0.0062938,-0.00721967,0.0,0 STARLINK-3456,1 51759U 22016AX  22116.91667824 -.00721967  00000-0 -62938-2 0  9997,2 51759  53.2176 181.2523 0003222   6.0790 311.1982 15.70426946  3671,6735.813,91.695,359.848,355.5080000000001,0.0
51759.0,STARLINK-3456,PAYLOAD,2022-04-27 06:00:00,15.69923395,0.0006676,53.2177,179.6127,304.1851,98.3701,-0.0065218,-0.00732877,0.0,0 STARLINK-3456,1 51759U 22016AX  22117.25001157 -.00732877  00000-0 -65218-2 0  9992,2 51759  53.2177 179.6127 0006676 304.1851  98.3701 15.69923395 11466,6737.253000000002,91.724,363.616,354.62,0.0
